OCEANSAT-2              
1 35931U 09051A   26166.55537288 -.00000102  00000+0 -44001-4 0  9997
2 35931  98.2324 153.5696 0015078 240.9403 119.0253 13.99664658879102
WORLDVIEW-2 (WV-2)      
1 35946U 09055A   26166.49373260  .00000103  00000+0  48716-4 0  9994
2 35946  98.4737 239.9666 0003607 213.7851 146.3106 14.37898975875407
SMOS                    
1 36036U 09059A   26166.52163373  .00000207  00000+0  79796-4 0  9992
2 36036  98.4423 353.8809 0001321  89.2597 270.8743 14.39771821873218
YAOGAN-7                
1 36110U 09069A   26166.39630133  .00000414  00000+0  64376-4 0  9992
2 36110  98.0074  52.2744 0025661  47.2519 313.0845 14.78008197889366
TANDEM-X                
1 36605U 10030A   26165.55699444  .00000494  00000+0  26723-4 0  9990
2 36605  97.4451 173.3020 0001853  84.5205 275.6241 15.19148396886241
CARTOSAT-2B             
1 36795U 10035A   26166.51259854  .00001140  00000+0  16265-3 0  9997
2 36795  97.9958 217.0731 0011063 189.1396 170.9615 14.78661747859606
YAOGAN-10               
1 36834U 10038A   26166.54306771  .00001235  00000+0  14990-3 0  9996
2 36834  97.8974 189.9603 0001695  84.9829  33.7104 14.85344888856962
COSMO-SKYMED 4          
1 37216U 10060A   26166.48594652  .00000735  00000+0  98914-4 0  9999
2 37216  97.8880 350.1103 0001438  83.4517 276.6860 14.82154179844315
RESOURCESAT-2           
1 37387U 11015A   26166.47020808  .00000052  00000+0  44023-4 0  9999
2 37387  98.7644 233.9239 0010168 261.0014  99.0012 14.21606020785934
HAIYANG-2A              
1 37781U 11043A   26166.50962767 -.00000013  00000+0  32638-4 0  9998
2 37781  99.3399 169.2243 0006091  94.4411 265.7434 13.74405454746427
RASAT                   
1 37791U 11044D   26166.53224714  .00000259  00000+0  53479-4 0  9993
2 37791  98.0580 257.9540 0020050 194.1277 176.9959 14.68164516792948
SRMSAT                  
1 37841U 11058D   26166.09346315  .00000356  00000+0  49299-4 0  9990
2 37841  19.9720  72.1399 0011838 180.5594 207.7984 14.11575160757521
PLEIADES 1A             
1 38012U 11076F   26166.49144394  .00000403  00000+0  96550-4 0  9993
2 38012  98.1983 241.6170 0001630  96.5752  29.3423 14.58570620771746
ZIYUAN 1-02C (ZY 1-02C) 
1 38038U 11079A   26166.55379272  .00000469  00000+0  16861-3 0  9994
2 38038  98.4079 233.8963 0005609 322.6751 144.6353 14.38214021758979
ARIRANG-3 (KOMPSAT-3)   
1 38338U 12025B   26166.52723668  .00000370  00000+0  82739-4 0  9997
2 38338  98.1176 124.0158 0006621 113.5582 246.6316 14.62204836751108
EXACTVIEW-1 (ADS-1B)    
1 38709U 12039C   26166.55563036  .00000088  00000+0  57572-4 0  9991
2 38709  98.9776 283.9090 0011070 170.9800 189.1580 14.24984117722475
SPOT 6                  
1 38755U 12047A   26166.48279690  .00000376  00000+0  90748-4 0  9995
2 38755  98.2127 233.8117 0001513  92.5630 267.5742 14.58562537732808
PLEIADES 1B             
1 39019U 12068A   26166.50171205  .00000311  00000+0  76812-4 0  9993
2 39019  98.1954 241.5764 0001657  91.9794 268.1595 14.58559923720609
GOKTURK 2               
1 39030U 12073A   26166.52109346  .00000799  00000+0  12420-3 0  9995
2 39030  97.6816   4.0365 0001641  57.7307 302.4061 14.75542800724266
LANDSAT 8               
1 39084U 13008A   26166.44531622  .00000271  00000+0  70283-4 0  9997
2 39084  98.2302 236.6012 0001359  93.7033 266.4320 14.57093430697644
SARAL                   
1 39086U 13009A   26166.50463720  .00000072  00000+0  42356-4 0  9999
2 39086  98.5555 353.0932 0000791 320.2999  39.8127 14.32855568695367
GAOFEN-1                
1 39150U 13018A   26166.50436032  .00000943  00000+0  14228-3 0  9990
2 39150  97.9103 238.6065 0015683 272.4129  87.5285 14.76536685707997
VNREDSAT 1              
1 39160U 13021B   26166.51795227  .00000451  00000+0  92963-4 0  9997
2 39160  97.9086 219.9985 0001732  89.6314 270.5088 14.64855430700048
ARIRANG-5 (KOMPSAT-5)   
1 39227U 13042A   26166.50336839  .00000982  00000+0  74509-4 0  9998
2 39227  97.6204 353.2278 0005252 124.0464 236.1262 15.04486591703609
SKYSAT-A                
1 39418U 13066C   26166.40549716  .00002663  00000+0  15395-3 0  9990
2 39418  97.3815 215.8595 0020239 324.0255  35.9613 15.12967453688217
DUBAISAT-2              
1 39419U 13066D   26166.54683271  .00003440  00000+0  21418-3 0  9998
2 39419  97.4556 156.7334 0012608  46.0144 314.2123 15.10172618686142
GPM-CORE                
1 39574U 14009C   26166.52596905  .00009942  00000+0  21764-3 0  9990
2 39574  64.9725 313.6899 0011933 250.9253 109.0596 15.44540074697551
SENTINEL-1A             
1 39634U 14016A   26166.51606763 -.00000008  00000+0  80976-5 0  9995
2 39634  98.1773 174.0730 0001438  81.6087 278.5275 14.59199068649771
KAZEOSAT 1              
1 39731U 14024A   26166.49523175  .00000211  00000+0  77294-4 0  9997
2 39731  98.3213 238.9845 0001386  73.8572 286.2771 14.42079689638314
ALOS-2                  
1 39766U 14029A   26166.51597782  .00002173  00000+0  29775-3 0  9997
2 39766  97.9223 263.7032 0001661  92.7584 267.3818 14.79469209651331
KAZEOSAT 2              
1 40010U 14033A   26166.54602814  .00000152  00000+0  23376-4 0  9999
2 40010  97.5406   6.2452 0008050 335.5303  24.5530 14.85467707648716
