OBJECT_NAME,OBJECT_ID,EPOCH,MEAN_MOTION,ECCENTRICITY,INCLINATION,RA_OF_ASC_NODE,ARG_OF_PERICENTER,MEAN_ANOMALY,EPHEMERIS_TYPE,CLASSIFICATION_TYPE,NORAD_CAT_ID,ELEMENT_SET_NO,REV_AT_EPOCH,BSTAR,MEAN_MOTION_DOT,MEAN_MOTION_DDOT
OCEANSAT-2,2009-051A,2026-06-15T13:19:44.216832,13.99664658,.0015078,98.2324,153.5696,240.9403,119.0253,0,U,35931,999,87910,-.44001E-4,-.102E-5,0
WORLDVIEW-2 (WV-2),2009-055A,2026-06-15T11:50:58.496640,14.37898975,.0003607,98.4737,239.9666,213.7851,146.3106,0,U,35946,999,87540,.48716E-4,.103E-5,0
SMOS,2009-059A,2026-06-15T12:31:09.154272,14.39771821,.0001321,98.4423,353.8809,89.2597,270.8743,0,U,36036,999,87321,.79796E-4,.207E-5,0
YAOGAN-7,2009-069A,2026-06-15T09:30:40.434912,14.78008197,.0025661,98.0074,52.2744,47.2519,313.0845,0,U,36110,999,88936,.64376E-4,.414E-5,0
TANDEM-X,2010-030A,2026-06-14T13:22:04.319616,15.19148396,.0001853,97.4451,173.3020,84.5205,275.6241,0,U,36605,999,88624,.26723E-4,.494E-5,0
CARTOSAT-2B,2010-035A,2026-06-15T12:18:08.513856,14.78661747,.0011063,97.9958,217.0731,189.1396,170.9615,0,U,36795,999,85960,.16265E-3,.114E-4,0
YAOGAN-10,2010-038A,2026-06-15T13:02:01.050144,14.85344888,.0001695,97.8974,189.9603,84.9829,33.7104,0,U,36834,999,85696,.1499E-3,.1235E-4,0
COSMO-SKYMED 4,2010-060A,2026-06-15T11:39:45.779328,14.82154179,.0001438,97.8880,350.1103,83.4517,276.6860,0,U,37216,999,84431,.98914E-4,.735E-5,0
RESOURCESAT-2,2011-015A,2026-06-15T11:17:05.978112,14.21606020,.0010168,98.7644,233.9239,261.0014,99.0012,0,U,37387,999,78593,.44023E-4,.52E-6,0
HAIYANG-2A,2011-043A,2026-06-15T12:13:51.830688,13.74405454,.0006091,99.3399,169.2243,94.4411,265.7434,0,U,37781,999,74642,.32638E-4,-.13E-6,0
RASAT,2011-044D,2026-06-15T12:46:26.152896,14.68164516,.002005,98.0580,257.9540,194.1277,176.9959,0,U,37791,999,79294,.53479E-4,.259E-5,0
SRMSAT,2011-058D,2026-06-15T02:14:35.216160,14.11575160,.00118389,19.9720,72.1399,180.5594,207.7984,0,U,37841,999,75752,.49298812E-4,.356E-5,0
PLEIADES 1A,2011-076F,2026-06-15T11:47:40.756416,14.58570620,.000163,98.1983,241.6170,96.5752,29.3423,0,U,38012,999,77174,.9655E-4,.403E-5,0
ZIYUAN 1-02C (ZY 1-02C),2011-079A,2026-06-15T13:17:27.691008,14.38214021,.0005609,98.4079,233.8963,322.6751,144.6353,0,U,38038,999,75897,.16861E-3,.469E-5,0
ARIRANG-3 (KOMPSAT-3),2012-025B,2026-06-15T12:39:13.249152,14.62204836,.0006621,98.1176,124.0158,113.5582,246.6316,0,U,38338,999,75110,.82739E-4,.37E-5,0
EXACTVIEW-1 (ADS-1B),2012-039C,2026-06-15T13:20:06.463104,14.24984117,.001107,98.9776,283.9090,170.9800,189.1580,0,U,38709,999,72247,.57572E-4,.88E-6,0
SPOT 6,2012-047A,2026-06-15T11:35:13.652160,14.58562537,.0001513,98.2127,233.8117,92.5630,267.5742,0,U,38755,999,73280,.90748E-4,.376E-5,0
PLEIADES 1B,2012-068A,2026-06-15T12:02:27.921120,14.58559923,.0001657,98.1954,241.5764,91.9794,268.1595,0,U,39019,999,72060,.76812E-4,.311E-5,0
GOKTURK 2,2012-073A,2026-06-15T12:30:22.474944,14.75542800,.0001641,97.6816,4.0365,57.7307,302.4061,0,U,39030,999,72426,.1242E-3,.799E-5,0
LANDSAT 8,2013-008A,2026-06-15T10:41:15.321408,14.57093430,.0001359,98.2302,236.6012,93.7033,266.4320,0,U,39084,999,69764,.70283E-4,.271E-5,0
SARAL,2013-009A,2026-06-15T12:06:40.654080,14.32855568,.0000791,98.5555,353.0932,320.2999,39.8127,0,U,39086,999,69536,.42356E-4,.72E-6,0
GAOFEN-1,2013-018A,2026-06-15T12:06:16.731648,14.76536685,.0015683,97.9103,238.6065,272.4129,87.5285,0,U,39150,999,70799,.14228E-3,.943E-5,0
VNREDSAT 1,2013-021B,2026-06-15T12:25:51.076128,14.64855430,.0001732,97.9086,219.9985,89.6314,270.5088,0,U,39160,999,70004,.92963E-4,.451E-5,0
ARIRANG-5 (KOMPSAT-5),2013-042A,2026-06-15T12:04:51.028896,15.04486591,.0005252,97.6204,353.2278,124.0464,236.1262,0,U,39227,999,70360,.74509E-4,.982E-5,0
SKYSAT-A,2013-066C,2026-06-15T09:43:54.954624,15.12967453,.0020239,97.3815,215.8595,324.0255,35.9613,0,U,39418,999,68821,.15395E-3,.2663E-4,0
DUBAISAT-2,2013-066D,2026-06-15T13:07:26.346144,15.10172618,.0012608,97.4556,156.7334,46.0144,314.2123,0,U,39419,999,68614,.21418E-3,.344E-4,0
GPM-CORE,2014-009C,2026-06-15T12:37:23.725920,15.44540074,.0011933,64.9725,313.6899,250.9253,109.0596,0,U,39574,999,69755,.21764E-3,.9942E-4,0
SENTINEL-1A,2014-016A,2026-06-15T12:23:08.243232,14.59199068,.0001438,98.1773,174.0730,81.6087,278.5275,0,U,39634,999,64977,.80976E-5,-.8E-7,0
KAZEOSAT 1,2014-024A,2026-06-15T11:53:08.023200,14.42079689,.0001386,98.3213,238.9845,73.8572,286.2771,0,U,39731,999,63831,.77294E-4,.211E-5,0
ALOS-2,2014-029A,2026-06-15T12:23:00.483648,14.79469209,.0001661,97.9223,263.7032,92.7584,267.3818,0,U,39766,999,65133,.29775E-3,.2173E-4,0
KAZEOSAT 2,2014-033A,2026-06-15T13:06:16.831296,14.85467707,.000805,97.5406,6.2452,335.5303,24.5530,0,U,40010,999,64871,.23376E-4,.152E-5,0
